{
  "type": "FeatureCollection",
  "features": [
    {
      "type": "Feature",
      "properties": {
        "norad_id": 31307,
        "name": "GALAXY 17 (G-17)",
        "group": "intelsat",
        "lat": -0.6256398571653397,
        "lon": 67.48633026917672,
        "alt_km": 35809.62890053602,
        "timestamp": "2025-12-26T03:50:11.755310+00:00",
        "meta_object_name": "GALAXY 17 (G-17)",
        "meta_object_id": "2007-016B",
        "meta_epoch": "2025-12-25T03:12:43.293888",
        "meta_mean_motion": 1.00272001,
        "meta_eccentricity": 0.00055995,
        "meta_inclination": 2.5292,
        "meta_ra_of_asc_node": 82.144,
        "meta_arg_of_pericenter": 173.1057,
        "meta_mean_anomaly": 161.8394,
        "meta_ephemeris_type": 0,
        "meta_classification_type": "U",
        "meta_norad_cat_id": 31307,
        "meta_element_set_no": 999,
        "meta_rev_at_epoch": 6805,
        "meta_bstar": 0,
        "meta_mean_motion_dot": -1.86e-06,
        "meta_mean_motion_ddot": 0,
        "tle_line1": "1 31307U 07016B   25359.13383442 -.00000186  00000+0  00000+0 0  9994",
        "tle_line2": "2 31307   2.5292  82.1440 0005599 173.1057 161.8394  1.00272001 68051"
      },
      "geometry": {
        "type": "Point",
        "coordinates": [
          67.48633026917672,
          -0.6256398571653397
        ]
      }
    },
    {
      "type": "Feature",
      "properties": {
        "norad_id": 31862,
        "name": "DIRECTV 10",
        "group": "intelsat",
        "lat": 0.002142885386293296,
        "lon": 49.69166389552782,
        "alt_km": 35786.789838261546,
        "timestamp": "2025-12-26T03:50:11.755321+00:00",
        "meta_object_name": "DIRECTV 10",
        "meta_object_id": "2007-032A",
        "meta_epoch": "2025-12-25T09:09:15.831072",
        "meta_mean_motion": 1.00280696,
        "meta_eccentricity": 7.66e-05,
        "meta_inclination": 0.0126,
        "meta_ra_of_asc_node": 126.575,
        "meta_arg_of_pericenter": 111.4706,
        "meta_mean_anomaly": 250.6263,
        "meta_ephemeris_type": 0,
        "meta_classification_type": "U",
        "meta_norad_cat_id": 31862,
        "meta_element_set_no": 999,
        "meta_rev_at_epoch": 4385,
        "meta_bstar": 0,
        "meta_mean_motion_dot": -8.3e-07,
        "meta_mean_motion_ddot": 0,
        "tle_line1": "1 31862U 07032A   25359.38143323 -.00000083  00000+0  00000+0 0  9993",
        "tle_line2": "2 31862   0.0126 126.5750 0000766 111.4706 250.6263  1.00280696 43852"
      },
      "geometry": {
        "type": "Point",
        "coordinates": [
          49.69166389552782,
          0.002142885386293296
        ]
      }
    },
    {
      "type": "Feature",
      "properties": {
        "norad_id": 32253,
        "name": "INTELSAT 11 (IS-11)",
        "group": "intelsat",
        "lat": -2.668870116328111,
        "lon": -40.773829121289545,
        "alt_km": 36117.06765808824,
        "timestamp": "2025-12-26T03:50:11.755351+00:00",
        "meta_object_name": "INTELSAT 11 (IS-11)",
        "meta_object_id": "2007-044B",
        "meta_epoch": "2025-12-25T13:02:38.686848",
        "meta_mean_motion": 0.99053085,
        "meta_eccentricity": 0.0008616,
        "meta_inclination": 3.1116,
        "meta_ra_of_asc_node": 80.8337,
        "meta_arg_of_pericenter": 171.4467,
        "meta_mean_anomaly": 207.1053,
        "meta_ephemeris_type": 0,
        "meta_classification_type": "U",
        "meta_norad_cat_id": 32253,
        "meta_element_set_no": 999,
        "meta_rev_at_epoch": 6673,
        "meta_bstar": 0,
        "meta_mean_motion_dot": -1.97e-06,
        "meta_mean_motion_ddot": 0,
        "tle_line1": "1 32253U 07044B   25359.54350332 -.00000197  00000+0  00000+0 0  9995",
        "tle_line2": "2 32253   3.1116  80.8337 0008616 171.4467 207.1053  0.99053085 66738"
      },
      "geometry": {
        "type": "Point",
        "coordinates": [
          -40.773829121289545,
          -2.668870116328111
        ]
      }
    },
    {
      "type": "Feature",
      "properties": {
        "norad_id": 32388,
        "name": "HORIZONS-2",
        "group": "intelsat",
        "lat": -0.13871306596247696,
        "lon": 78.66791408603275,
        "alt_km": 35805.785857412106,
        "timestamp": "2025-12-26T03:50:11.755364+00:00",
        "meta_object_name": "HORIZONS-2",
        "meta_object_id": "2007-063B",
        "meta_epoch": "2025-12-25T09:17:22.555104",
        "meta_mean_motion": 1.0026947,
        "meta_eccentricity": 0.0004798,
        "meta_inclination": 2.1525,
        "meta_ra_of_asc_node": 82.8237,
        "meta_arg_of_pericenter": 196.873,
        "meta_mean_anomaly": 239.9945,
        "meta_ephemeris_type": 0,
        "meta_classification_type": "U",
        "meta_norad_cat_id": 32388,
        "meta_element_set_no": 999,
        "meta_rev_at_epoch": 6607,
        "meta_bstar": 0,
        "meta_mean_motion_dot": -2.33e-06,
        "meta_mean_motion_ddot": 0,
        "tle_line1": "1 32388U 07063B   25359.38706661 -.00000233  00000+0  00000+0 0  9998",
        "tle_line2": "2 32388   2.1525  82.8237 0004798 196.8730 239.9945  1.00269470 66072"
      },
      "geometry": {
        "type": "Point",
        "coordinates": [
          78.66791408603275,
          -0.13871306596247696
        ]
      }
    },
    {
      "type": "Feature",
      "properties": {
        "norad_id": 32729,
        "name": "DIRECTV 11",
        "group": "intelsat",
        "lat": -0.005365679282442491,
        "lon": 53.19732060160045,
        "alt_km": 35793.378810166745,
        "timestamp": "2025-12-26T03:50:11.755376+00:00",
        "meta_object_name": "DIRECTV 11",
        "meta_object_id": "2008-013A",
        "meta_epoch": "2025-12-24T22:53:59.758368",
        "meta_mean_motion": 1.00260442,
        "meta_eccentricity": 0.0001047,
        "meta_inclination": 0.0475,
        "meta_ra_of_asc_node": 199.7105,
        "meta_arg_of_pericenter": 11.4593,
        "meta_mean_anomaly": 126.8496,
        "meta_ephemeris_type": 0,
        "meta_classification_type": "U",
        "meta_norad_cat_id": 32729,
        "meta_element_set_no": 999,
        "meta_rev_at_epoch": 4384,
        "meta_bstar": 0,
        "meta_mean_motion_dot": -1.03e-06,
        "meta_mean_motion_ddot": 0,
        "tle_line1": "1 32729U 08013A   25358.95416387 -.00000103  00000+0  00000+0 0  9994",
        "tle_line2": "2 32729   0.0475 199.7105 0001047  11.4593 126.8496  1.00260442 43842"
      },
      "geometry": {
        "type": "Point",
        "coordinates": [
          53.19732060160045,
          -0.005365679282442491
        ]
      }
    },
    {
      "type": "Feature",
      "properties": {
        "norad_id": 32951,
        "name": "GALAXY 18 (G-18)",
        "group": "intelsat",
        "lat": 0.022440348251351487,
        "lon": 29.480329036019935,
        "alt_km": 35790.219776268495,
        "timestamp": "2025-12-26T03:50:11.755389+00:00",
        "meta_object_name": "GALAXY 18 (G-18)",
        "meta_object_id": "2008-024A",
        "meta_epoch": "2025-12-25T12:28:53.031072",
        "meta_mean_motion": 1.00272109,
        "meta_eccentricity": 0.0003072,
        "meta_inclination": 0.018,
        "meta_ra_of_asc_node": 328.2801,
        "meta_arg_of_pericenter": 312.0442,
        "meta_mean_anomaly": 238.17,
        "meta_ephemeris_type": 0,
        "meta_classification_type": "U",
        "meta_norad_cat_id": 32951,
        "meta_element_set_no": 999,
        "meta_rev_at_epoch": 4411,
        "meta_bstar": 0,
        "meta_mean_motion_dot": 4.6e-07,
        "meta_mean_motion_ddot": 0,
        "tle_line1": "1 32951U 08024A   25359.52005823  .00000046  00000+0  00000+0 0  9991",
        "tle_line2": "2 32951   0.0180 328.2801 0003072 312.0442 238.1700  1.00272109 44116"
      },
      "geometry": {
        "type": "Point",
        "coordinates": [
          29.480329036019935,
          0.022440348251351487
        ]
      }
    },
    {
      "type": "Feature",
      "properties": {
        "norad_id": 33153,
        "name": "INTELSAT 25 (IS-25)",
        "group": "intelsat",
        "lat": 1.4232571873200914,
        "lon": 120.90904378871984,
        "alt_km": 35804.29925041842,
        "timestamp": "2025-12-26T03:50:11.755402+00:00",
        "meta_object_name": "INTELSAT 25 (IS-25)",
        "meta_object_id": "2008-034A",
        "meta_epoch": "2025-12-25T09:29:36.384000",
        "meta_mean_motion": 1.0027183,
        "meta_eccentricity": 0.0004941,
        "meta_inclination": 2.2584,
        "meta_ra_of_asc_node": 82.5122,
        "meta_arg_of_pericenter": 189.7179,
        "meta_mean_anomaly": 292.833,
        "meta_ephemeris_type": 0,
        "meta_classification_type": "U",
        "meta_norad_cat_id": 33153,
        "meta_element_set_no": 999,
        "meta_rev_at_epoch": 6395,
        "meta_bstar": 0,
        "meta_mean_motion_dot": -2.03e-06,
        "meta_mean_motion_ddot": 0,
        "tle_line1": "1 33153U 08034A   25359.39556000 -.00000203  00000+0  00000+0 0  9996",
        "tle_line2": "2 33153   2.2584  82.5122 0004941 189.7179 292.8330  1.00271830 63950"
      },
      "geometry": {
        "type": "Point",
        "coordinates": [
          120.90904378871984,
          1.4232571873200914
        ]
      }
    }
  ]
}